[{"OBJECT_NAME":"STARLINK-36037","OBJECT_ID":"2025-270AB","EPOCH":"2026-03-09T22:33:18.172224","MEAN_MOTION":15.27590044,"ECCENTRICITY":0.00013307,"INCLINATION":43.0039,"RA_OF_ASC_NODE":54.8088,"ARG_OF_PERICENTER":274.188,"MEAN_ANOMALY":85.882,"EPHEMERIS_TYPE":0,"CLASSIFICATION_TYPE":"U","NORAD_CAT_ID":66613,"ELEMENT_SET_NO":999,"REV_AT_EPOCH":1774,"BSTAR":0.0008442391,"MEAN_MOTION_DOT":0.00023049,"MEAN_MOTION_DDOT":0},{"OBJECT_NAME":"SL-3 DEB","OBJECT_ID":"1988-032D","EPOCH":"2026-03-09T21:36:49.536576","MEAN_MOTION":15.21301321,"ECCENTRICITY":0.00302448,"INCLINATION":97.5102,"RA_OF_ASC_NODE":52.3226,"ARG_OF_PERICENTER":221.5268,"MEAN_ANOMALY":138.367,"EPHEMERIS_TYPE":0,"CLASSIFICATION_TYPE":"U","NORAD_CAT_ID":25655,"ELEMENT_SET_NO":999,"REV_AT_EPOCH":5124,"BSTAR":0.00031081119,"MEAN_MOTION_DOT":6.967e-5,"MEAN_MOTION_DDOT":0}]
